{
"type": "FeatureCollection",
"name": "ner_weather_monitoring_grid",
"crs": { "type": "name", "properties": { "name": "urn:ogc:def:crs:OGC:1.3:CRS84" } },
"features": [
{ "type": "Feature", "properties": { "id": "NER_AS_01", "name": "Guwahati", "state": "Assam", "lat": 26.1445, "lon": 91.7362, "corridor": "NH-27 / Hub", "elevation_m": 55 }, "geometry": { "type": "Point", "coordinates": [ 91.7362, 26.1445 ] } },
{ "type": "Feature", "properties": { "id": "NER_AS_02", "name": "Silchar", "state": "Assam", "lat": 24.8333, "lon": 92.7789, "corridor": "Barak Valley / NH-37", "elevation_m": 25 }, "geometry": { "type": "Point", "coordinates": [ 92.7789, 24.8333 ] } },
{ "type": "Feature", "properties": { "id": "NER_AS_03", "name": "Dibrugarh", "state": "Assam", "lat": 27.4728, "lon": 94.912, "corridor": "Upper Assam / NH-15", "elevation_m": 108 }, "geometry": { "type": "Point", "coordinates": [ 94.912, 27.4728 ] } },
{ "type": "Feature", "properties": { "id": "NER_AS_04", "name": "Tezpur", "state": "Assam", "lat": 26.6528, "lon": 92.7926, "corridor": "North Bank / NH-15", "elevation_m": 48 }, "geometry": { "type": "Point", "coordinates": [ 92.7926, 26.6528 ] } },
{ "type": "Feature", "properties": { "id": "NER_AS_05", "name": "Jorhat", "state": "Assam", "lat": 26.7509, "lon": 94.2037, "corridor": "Central Assam / NH-715", "elevation_m": 116 }, "geometry": { "type": "Point", "coordinates": [ 94.2037, 26.7509 ] } },
{ "type": "Feature", "properties": { "id": "NER_AS_06", "name": "Haflong", "state": "Assam", "lat": 25.1764, "lon": 93.0183, "corridor": "Dima Hasao Hill Highway / NH-27", "elevation_m": 968 }, "geometry": { "type": "Point", "coordinates": [ 93.0183, 25.1764 ] } },
{ "type": "Feature", "properties": { "id": "NER_AS_07", "name": "Bongaigaon", "state": "Assam", "lat": 26.5024, "lon": 90.5532, "corridor": "Lower Assam / NH-27", "elevation_m": 54 }, "geometry": { "type": "Point", "coordinates": [ 90.5532, 26.5024 ] } },
{ "type": "Feature", "properties": { "id": "NER_AS_08", "name": "Diphu", "state": "Assam", "lat": 25.8436, "lon": 93.4312, "corridor": "Karbi Anglong / NH-329", "elevation_m": 186 }, "geometry": { "type": "Point", "coordinates": [ 93.4312, 25.8436 ] } },
{ "type": "Feature", "properties": { "id": "NER_AR_01", "name": "Itanagar", "state": "Arunachal Pradesh", "lat": 27.0844, "lon": 93.6053, "corridor": "Capital / NH-415", "elevation_m": 320 }, "geometry": { "type": "Point", "coordinates": [ 93.6053, 27.0844 ] } },
{ "type": "Feature", "properties": { "id": "NER_AR_02", "name": "Tawang", "state": "Arunachal Pradesh", "lat": 27.5861, "lon": 91.8653, "corridor": "Sela Pass Corridor / NH-13", "elevation_m": 3048 }, "geometry": { "type": "Point", "coordinates": [ 91.8653, 27.5861 ] } },
{ "type": "Feature", "properties": { "id": "NER_AR_03", "name": "Bomdila", "state": "Arunachal Pradesh", "lat": 27.2645, "lon": 92.4208, "corridor": "West Kameng / NH-13", "elevation_m": 2217 }, "geometry": { "type": "Point", "coordinates": [ 92.4208, 27.2645 ] } },
{ "type": "Feature", "properties": { "id": "NER_AR_04", "name": "Pasighat", "state": "Arunachal Pradesh", "lat": 28.0664, "lon": 95.3267, "corridor": "Siang Valley / NH-515", "elevation_m": 153 }, "geometry": { "type": "Point", "coordinates": [ 95.3267, 28.0664 ] } },
{ "type": "Feature", "properties": { "id": "NER_AR_05", "name": "Ziro", "state": "Arunachal Pradesh", "lat": 27.545, "lon": 93.834, "corridor": "Subansiri / NH-13", "elevation_m": 1572 }, "geometry": { "type": "Point", "coordinates": [ 93.834, 27.545 ] } },
{ "type": "Feature", "properties": { "id": "NER_AR_06", "name": "Tezu", "state": "Arunachal Pradesh", "lat": 27.9167, "lon": 96.1667, "corridor": "Lohit / NH-13", "elevation_m": 210 }, "geometry": { "type": "Point", "coordinates": [ 96.1667, 27.9167 ] } },
{ "type": "Feature", "properties": { "id": "NER_AR_07", "name": "Aalo (Along)", "state": "Arunachal Pradesh", "lat": 28.1694, "lon": 94.8028, "corridor": "West Siang / Trans-Arunachal", "elevation_m": 619 }, "geometry": { "type": "Point", "coordinates": [ 94.8028, 28.1694 ] } },
{ "type": "Feature", "properties": { "id": "NER_ML_01", "name": "Shillong", "state": "Meghalaya", "lat": 25.5788, "lon": 91.8933, "corridor": "Khasi Hills / NH-6", "elevation_m": 1525 }, "geometry": { "type": "Point", "coordinates": [ 91.8933, 25.5788 ] } },
{ "type": "Feature", "properties": { "id": "NER_ML_02", "name": "Cherrapunji (Sohra)", "state": "Meghalaya", "lat": 25.27, "lon": 91.73, "corridor": "Heavy Rain Zone / SH-5", "elevation_m": 1484 }, "geometry": { "type": "Point", "coordinates": [ 91.73, 25.27 ] } },
{ "type": "Feature", "properties": { "id": "NER_ML_03", "name": "Jowai", "state": "Meghalaya", "lat": 25.4464, "lon": 92.1994, "corridor": "Jaintia Hills / NH-6", "elevation_m": 1380 }, "geometry": { "type": "Point", "coordinates": [ 92.1994, 25.4464 ] } },
{ "type": "Feature", "properties": { "id": "NER_ML_04", "name": "Tura", "state": "Meghalaya", "lat": 25.5144, "lon": 90.2032, "corridor": "Garo Hills / NH-217", "elevation_m": 349 }, "geometry": { "type": "Point", "coordinates": [ 90.2032, 25.5144 ] } },
{ "type": "Feature", "properties": { "id": "NER_ML_05", "name": "Nongstoin", "state": "Meghalaya", "lat": 25.5167, "lon": 91.2667, "corridor": "West Khasi / NH-106", "elevation_m": 1409 }, "geometry": { "type": "Point", "coordinates": [ 91.2667, 25.5167 ] } },
{ "type": "Feature", "properties": { "id": "NER_MN_01", "name": "Imphal", "state": "Manipur", "lat": 24.817, "lon": 93.9368, "corridor": "Imphal Valley / NH-2", "elevation_m": 786 }, "geometry": { "type": "Point", "coordinates": [ 93.9368, 24.817 ] } },
{ "type": "Feature", "properties": { "id": "NER_MN_02", "name": "Senapati", "state": "Manipur", "lat": 25.2681, "lon": 94.0203, "corridor": "Kohima-Imphal Lifeline / NH-2", "elevation_m": 1050 }, "geometry": { "type": "Point", "coordinates": [ 94.0203, 25.2681 ] } },
{ "type": "Feature", "properties": { "id": "NER_MN_03", "name": "Tamenglong", "state": "Manipur", "lat": 24.9856, "lon": 93.4939, "corridor": "High Landslide Zone / NH-37", "elevation_m": 1260 }, "geometry": { "type": "Point", "coordinates": [ 93.4939, 24.9856 ] } },
{ "type": "Feature", "properties": { "id": "NER_MN_04", "name": "Churachandpur", "state": "Manipur", "lat": 24.3333, "lon": 93.6833, "corridor": "South Manipur / NH-102B", "elevation_m": 922 }, "geometry": { "type": "Point", "coordinates": [ 93.6833, 24.3333 ] } },
{ "type": "Feature", "properties": { "id": "NER_MN_05", "name": "Ukhrul", "state": "Manipur", "lat": 25.1167, "lon": 94.3667, "corridor": "East Manipur / NH-202", "elevation_m": 1662 }, "geometry": { "type": "Point", "coordinates": [ 94.3667, 25.1167 ] } },
{ "type": "Feature", "properties": { "id": "NER_MN_06", "name": "Jiribam", "state": "Manipur", "lat": 24.8, "lon": 93.12, "corridor": "Assam-Manipur Border / NH-37", "elevation_m": 30 }, "geometry": { "type": "Point", "coordinates": [ 93.12, 24.8 ] } },
{ "type": "Feature", "properties": { "id": "NER_MZ_01", "name": "Aizawl", "state": "Mizoram", "lat": 23.7307, "lon": 92.7173, "corridor": "Capital / NH-306", "elevation_m": 1132 }, "geometry": { "type": "Point", "coordinates": [ 92.7173, 23.7307 ] } },
{ "type": "Feature", "properties": { "id": "NER_MZ_02", "name": "Lunglei", "state": "Mizoram", "lat": 22.8833, "lon": 92.7333, "corridor": "South Mizoram / NH-54", "elevation_m": 722 }, "geometry": { "type": "Point", "coordinates": [ 92.7333, 22.8833 ] } },
{ "type": "Feature", "properties": { "id": "NER_MZ_03", "name": "Kolasib", "state": "Mizoram", "lat": 24.23, "lon": 92.68, "corridor": "Silchar-Aizawl Lifeline / NH-306", "elevation_m": 612 }, "geometry": { "type": "Point", "coordinates": [ 92.68, 24.23 ] } },
{ "type": "Feature", "properties": { "id": "NER_MZ_04", "name": "Champhai", "state": "Mizoram", "lat": 23.4756, "lon": 93.3283, "corridor": "Border Trade Corridor / NH-102B", "elevation_m": 1334 }, "geometry": { "type": "Point", "coordinates": [ 93.3283, 23.4756 ] } },
{ "type": "Feature", "properties": { "id": "NER_MZ_05", "name": "Serchhip", "state": "Mizoram", "lat": 23.3411, "lon": 92.85, "corridor": "Central Mizoram / NH-54", "elevation_m": 880 }, "geometry": { "type": "Point", "coordinates": [ 92.85, 23.3411 ] } },
{ "type": "Feature", "properties": { "id": "NER_NL_01", "name": "Kohima", "state": "Nagaland", "lat": 25.6701, "lon": 94.1077, "corridor": "Capital Highway / NH-29", "elevation_m": 1444 }, "geometry": { "type": "Point", "coordinates": [ 94.1077, 25.6701 ] } },
{ "type": "Feature", "properties": { "id": "NER_NL_02", "name": "Dimapur", "state": "Nagaland", "lat": 25.9068, "lon": 93.7274, "corridor": "Logistics Gateway / NH-29", "elevation_m": 145 }, "geometry": { "type": "Point", "coordinates": [ 93.7274, 25.9068 ] } },
{ "type": "Feature", "properties": { "id": "NER_NL_03", "name": "Mokokchung", "state": "Nagaland", "lat": 26.3253, "lon": 94.515, "corridor": "Central Nagaland / NH-2", "elevation_m": 1325 }, "geometry": { "type": "Point", "coordinates": [ 94.515, 26.3253 ] } },
{ "type": "Feature", "properties": { "id": "NER_NL_04", "name": "Wokha", "state": "Nagaland", "lat": 26.1, "lon": 94.2667, "corridor": "Mid Hills / NH-2", "elevation_m": 1313 }, "geometry": { "type": "Point", "coordinates": [ 94.2667, 26.1 ] } },
{ "type": "Feature", "properties": { "id": "NER_NL_05", "name": "Mon", "state": "Nagaland", "lat": 26.75, "lon": 95.0333, "corridor": "North Nagaland / NH-702", "elevation_m": 897 }, "geometry": { "type": "Point", "coordinates": [ 95.0333, 26.75 ] } },
{ "type": "Feature", "properties": { "id": "NER_NL_06", "name": "Phek", "state": "Nagaland", "lat": 25.6833, "lon": 94.5, "corridor": "East Hills / NH-202", "elevation_m": 1450 }, "geometry": { "type": "Point", "coordinates": [ 94.5, 25.6833 ] } },
{ "type": "Feature", "properties": { "id": "NER_SK_01", "name": "Gangtok", "state": "Sikkim", "lat": 27.3389, "lon": 88.6065, "corridor": "Capital / NH-10", "elevation_m": 1650 }, "geometry": { "type": "Point", "coordinates": [ 88.6065, 27.3389 ] } },
{ "type": "Feature", "properties": { "id": "NER_SK_02", "name": "Namchi", "state": "Sikkim", "lat": 27.1667, "lon": 88.35, "corridor": "South Sikkim / SH-2", "elevation_m": 1315 }, "geometry": { "type": "Point", "coordinates": [ 88.35, 27.1667 ] } },
{ "type": "Feature", "properties": { "id": "NER_SK_03", "name": "Mangan", "state": "Sikkim", "lat": 27.5167, "lon": 88.5333, "corridor": "North Sikkim Highway (High Risk)", "elevation_m": 956 }, "geometry": { "type": "Point", "coordinates": [ 88.5333, 27.5167 ] } },
{ "type": "Feature", "properties": { "id": "NER_SK_04", "name": "Gyalshing", "state": "Sikkim", "lat": 27.2833, "lon": 88.25, "corridor": "West Sikkim / SH-3", "elevation_m": 1600 }, "geometry": { "type": "Point", "coordinates": [ 88.25, 27.2833 ] } },
{ "type": "Feature", "properties": { "id": "NER_SK_05", "name": "Rangpo", "state": "Sikkim", "lat": 27.1772, "lon": 88.5311, "corridor": "WB-Sikkim Gateway / NH-10", "elevation_m": 330 }, "geometry": { "type": "Point", "coordinates": [ 88.5311, 27.1772 ] } },
{ "type": "Feature", "properties": { "id": "NER_TR_01", "name": "Agartala", "state": "Tripura", "lat": 23.8315, "lon": 91.2868, "corridor": "Capital / NH-8", "elevation_m": 12 }, "geometry": { "type": "Point", "coordinates": [ 91.2868, 23.8315 ] } },
{ "type": "Feature", "properties": { "id": "NER_TR_02", "name": "Dharmanagar", "state": "Tripura", "lat": 24.3833, "lon": 92.1667, "corridor": "North Tripura / NH-8", "elevation_m": 21 }, "geometry": { "type": "Point", "coordinates": [ 92.1667, 24.3833 ] } },
{ "type": "Feature", "properties": { "id": "NER_TR_03", "name": "Udaipur", "state": "Tripura", "lat": 23.5333, "lon": 91.4833, "corridor": "South Tripura / NH-8", "elevation_m": 19 }, "geometry": { "type": "Point", "coordinates": [ 91.4833, 23.5333 ] } },
{ "type": "Feature", "properties": { "id": "NER_TR_04", "name": "Ambassa", "state": "Tripura", "lat": 23.9167, "lon": 91.85, "corridor": "Dhalai / NH-8", "elevation_m": 60 }, "geometry": { "type": "Point", "coordinates": [ 91.85, 23.9167 ] } }
]
}
