{
"type": "FeatureCollection",
"name": "ner_live_weather_snapshot",
"crs": { "type": "name", "properties": { "name": "urn:ogc:def:crs:OGC:1.3:CRS84" } },
"features": [
{ "type": "Feature", "properties": { "station_id": "NER_AS_01", "name": "Guwahati", "state": "Assam", "corridor": "NH-27 / Hub", "elevation_m": 55, "latitude": 26.1445, "longitude": 91.7362, "timestamp": "2026-09-05T19:24:27.003768+00:00", "temperature_c": 25.7, "relative_humidity_pct": 98, "current_precip_rate_mm_hr": 0.2, "wind_speed_kmh": 2.5, "weather_code": 53, "past_24h_rainfall_mm": 9.0, "past_48h_rainfall_mm": 17.1, "past_72h_rainfall_mm": 31.0, "forecast_next_24h_mm": 5.6, "antecedent_rainfall_index": 16.53, "rainfall_hazard_level": "MODERATE", "dynamic_risk_multiplier": 1.3 }, "geometry": { "type": "Point", "coordinates": [ 91.7362, 26.1445 ] } },
{ "type": "Feature", "properties": { "station_id": "NER_AS_02", "name": "Silchar", "state": "Assam", "corridor": "Barak Valley / NH-37", "elevation_m": 25, "latitude": 24.8333, "longitude": 92.7789, "timestamp": "2026-09-05T19:24:27.003768+00:00", "temperature_c": 24.9, "relative_humidity_pct": 98, "current_precip_rate_mm_hr": 0.8, "wind_speed_kmh": 7.8, "weather_code": 95, "past_24h_rainfall_mm": 20.4, "past_48h_rainfall_mm": 25.7, "past_72h_rainfall_mm": 47.6, "forecast_next_24h_mm": 18.6, "antecedent_rainfall_index": 28.52, "rainfall_hazard_level": "MODERATE", "dynamic_risk_multiplier": 1.3 }, "geometry": { "type": "Point", "coordinates": [ 92.7789, 24.8333 ] } },
{ "type": "Feature", "properties": { "station_id": "NER_AS_03", "name": "Dibrugarh", "state": "Assam", "corridor": "Upper Assam / NH-15", "elevation_m": 108, "latitude": 27.4728, "longitude": 94.912, "timestamp": "2026-09-05T19:24:27.003768+00:00", "temperature_c": 25.9, "relative_humidity_pct": 97, "current_precip_rate_mm_hr": 0.1, "wind_speed_kmh": 5.7, "weather_code": 51, "past_24h_rainfall_mm": 12.0, "past_48h_rainfall_mm": 36.4, "past_72h_rainfall_mm": 37.4, "forecast_next_24h_mm": 8.3, "antecedent_rainfall_index": 24.45, "rainfall_hazard_level": "MODERATE", "dynamic_risk_multiplier": 1.3 }, "geometry": { "type": "Point", "coordinates": [ 94.912, 27.4728 ] } },
{ "type": "Feature", "properties": { "station_id": "NER_AS_04", "name": "Tezpur", "state": "Assam", "corridor": "North Bank / NH-15", "elevation_m": 48, "latitude": 26.6528, "longitude": 92.7926, "timestamp": "2026-09-05T19:24:27.003768+00:00", "temperature_c": 26.3, "relative_humidity_pct": 97, "current_precip_rate_mm_hr": 0.8, "wind_speed_kmh": 6.0, "weather_code": 96, "past_24h_rainfall_mm": 21.3, "past_48h_rainfall_mm": 27.8, "past_72h_rainfall_mm": 29.7, "forecast_next_24h_mm": 19.4, "antecedent_rainfall_index": 25.03, "rainfall_hazard_level": "MODERATE", "dynamic_risk_multiplier": 1.3 }, "geometry": { "type": "Point", "coordinates": [ 92.7926, 26.6528 ] } },
{ "type": "Feature", "properties": { "station_id": "NER_AS_05", "name": "Jorhat", "state": "Assam", "corridor": "Central Assam / NH-715", "elevation_m": 116, "latitude": 26.7509, "longitude": 94.2037, "timestamp": "2026-09-05T19:24:27.003768+00:00", "temperature_c": 26.5, "relative_humidity_pct": 99, "current_precip_rate_mm_hr": 0.1, "wind_speed_kmh": 3.6, "weather_code": 51, "past_24h_rainfall_mm": 23.5, "past_48h_rainfall_mm": 34.9, "past_72h_rainfall_mm": 49.3, "forecast_next_24h_mm": 44.3, "antecedent_rainfall_index": 32.8, "rainfall_hazard_level": "MODERATE", "dynamic_risk_multiplier": 1.3 }, "geometry": { "type": "Point", "coordinates": [ 94.2037, 26.7509 ] } },
{ "type": "Feature", "properties": { "station_id": "NER_AS_06", "name": "Haflong", "state": "Assam", "corridor": "Dima Hasao Hill Highway / NH-27", "elevation_m": 968, "latitude": 25.1764, "longitude": 93.0183, "timestamp": "2026-09-05T19:24:27.003768+00:00", "temperature_c": 22.8, "relative_humidity_pct": 93, "current_precip_rate_mm_hr": 0.5, "wind_speed_kmh": 10.2, "weather_code": 80, "past_24h_rainfall_mm": 0.3, "past_48h_rainfall_mm": 5.0, "past_72h_rainfall_mm": 16.3, "forecast_next_24h_mm": 2.6, "antecedent_rainfall_index": 5.48, "rainfall_hazard_level": "NORMAL", "dynamic_risk_multiplier": 1.0 }, "geometry": { "type": "Point", "coordinates": [ 93.0183, 25.1764 ] } },
{ "type": "Feature", "properties": { "station_id": "NER_AS_07", "name": "Bongaigaon", "state": "Assam", "corridor": "Lower Assam / NH-27", "elevation_m": 54, "latitude": 26.5024, "longitude": 90.5532, "timestamp": "2026-09-05T19:24:27.003768+00:00", "temperature_c": 25.0, "relative_humidity_pct": 98, "current_precip_rate_mm_hr": 0.3, "wind_speed_kmh": 9.6, "weather_code": 55, "past_24h_rainfall_mm": 9.0, "past_48h_rainfall_mm": 12.6, "past_72h_rainfall_mm": 12.6, "forecast_next_24h_mm": 7.4, "antecedent_rainfall_index": 10.8, "rainfall_hazard_level": "NORMAL", "dynamic_risk_multiplier": 1.0 }, "geometry": { "type": "Point", "coordinates": [ 90.5532, 26.5024 ] } },
{ "type": "Feature", "properties": { "station_id": "NER_AS_08", "name": "Diphu", "state": "Assam", "corridor": "Karbi Anglong / NH-329", "elevation_m": 186, "latitude": 25.8436, "longitude": 93.4312, "timestamp": "2026-09-05T19:24:27.003768+00:00", "temperature_c": 26.1, "relative_humidity_pct": 95, "current_precip_rate_mm_hr": 0.0, "wind_speed_kmh": 3.1, "weather_code": 2, "past_24h_rainfall_mm": 12.1, "past_48h_rainfall_mm": 14.2, "past_72h_rainfall_mm": 18.7, "forecast_next_24h_mm": 5.8, "antecedent_rainfall_index": 14.28, "rainfall_hazard_level": "NORMAL", "dynamic_risk_multiplier": 1.0 }, "geometry": { "type": "Point", "coordinates": [ 93.4312, 25.8436 ] } },
{ "type": "Feature", "properties": { "station_id": "NER_AR_01", "name": "Itanagar", "state": "Arunachal Pradesh", "corridor": "Capital / NH-415", "elevation_m": 320, "latitude": 27.0844, "longitude": 93.6053, "timestamp": "2026-09-05T19:24:27.003768+00:00", "temperature_c": 24.6, "relative_humidity_pct": 98, "current_precip_rate_mm_hr": 0.0, "wind_speed_kmh": 1.8, "weather_code": 2, "past_24h_rainfall_mm": 21.0, "past_48h_rainfall_mm": 26.7, "past_72h_rainfall_mm": 27.7, "forecast_next_24h_mm": 16.8, "antecedent_rainfall_index": 24.1, "rainfall_hazard_level": "MODERATE", "dynamic_risk_multiplier": 1.3 }, "geometry": { "type": "Point", "coordinates": [ 93.6053, 27.0844 ] } },
{ "type": "Feature", "properties": { "station_id": "NER_AR_02", "name": "Tawang", "state": "Arunachal Pradesh", "corridor": "Sela Pass Corridor / NH-13", "elevation_m": 3048, "latitude": 27.5861, "longitude": 91.8653, "timestamp": "2026-09-05T19:24:27.003768+00:00", "temperature_c": 11.9, "relative_humidity_pct": 98, "current_precip_rate_mm_hr": 0.0, "wind_speed_kmh": 0.3, "weather_code": 3, "past_24h_rainfall_mm": 1.8, "past_48h_rainfall_mm": 3.5, "past_72h_rainfall_mm": 7.4, "forecast_next_24h_mm": 3.5, "antecedent_rainfall_index": 3.62, "rainfall_hazard_level": "NORMAL", "dynamic_risk_multiplier": 1.0 }, "geometry": { "type": "Point", "coordinates": [ 91.8653, 27.5861 ] } },
{ "type": "Feature", "properties": { "station_id": "NER_AR_03", "name": "Bomdila", "state": "Arunachal Pradesh", "corridor": "West Kameng / NH-13", "elevation_m": 2217, "latitude": 27.2645, "longitude": 92.4208, "timestamp": "2026-09-05T19:24:27.003768+00:00", "temperature_c": 15.2, "relative_humidity_pct": 100, "current_precip_rate_mm_hr": 0.0, "wind_speed_kmh": 1.0, "weather_code": 3, "past_24h_rainfall_mm": 13.7, "past_48h_rainfall_mm": 32.2, "past_72h_rainfall_mm": 35.7, "forecast_next_24h_mm": 5.3, "antecedent_rainfall_index": 23.82, "rainfall_hazard_level": "MODERATE", "dynamic_risk_multiplier": 1.3 }, "geometry": { "type": "Point", "coordinates": [ 92.4208, 27.2645 ] } },
{ "type": "Feature", "properties": { "station_id": "NER_AR_04", "name": "Pasighat", "state": "Arunachal Pradesh", "corridor": "Siang Valley / NH-515", "elevation_m": 153, "latitude": 28.0664, "longitude": 95.3267, "timestamp": "2026-09-05T19:24:27.003768+00:00", "temperature_c": 25.7, "relative_humidity_pct": 92, "current_precip_rate_mm_hr": 0.0, "wind_speed_kmh": 0.9, "weather_code": 2, "past_24h_rainfall_mm": 9.0, "past_48h_rainfall_mm": 28.2, "past_72h_rainfall_mm": 28.2, "forecast_next_24h_mm": 11.9, "antecedent_rainfall_index": 18.6, "rainfall_hazard_level": "MODERATE", "dynamic_risk_multiplier": 1.3 }, "geometry": { "type": "Point", "coordinates": [ 95.3267, 28.0664 ] } },
{ "type": "Feature", "properties": { "station_id": "NER_AR_05", "name": "Ziro", "state": "Arunachal Pradesh", "corridor": "Subansiri / NH-13", "elevation_m": 1572, "latitude": 27.545, "longitude": 93.834, "timestamp": "2026-09-05T19:24:27.003768+00:00", "temperature_c": 18.1, "relative_humidity_pct": 93, "current_precip_rate_mm_hr": 0.0, "wind_speed_kmh": 0.8, "weather_code": 3, "past_24h_rainfall_mm": 10.3, "past_48h_rainfall_mm": 19.8, "past_72h_rainfall_mm": 38.0, "forecast_next_24h_mm": 14.4, "antecedent_rainfall_index": 19.6, "rainfall_hazard_level": "MODERATE", "dynamic_risk_multiplier": 1.3 }, "geometry": { "type": "Point", "coordinates": [ 93.834, 27.545 ] } },
{ "type": "Feature", "properties": { "station_id": "NER_AR_06", "name": "Tezu", "state": "Arunachal Pradesh", "corridor": "Lohit / NH-13", "elevation_m": 210, "latitude": 27.9167, "longitude": 96.1667, "timestamp": "2026-09-05T19:24:27.003768+00:00", "temperature_c": 25.1, "relative_humidity_pct": 94, "current_precip_rate_mm_hr": 0.0, "wind_speed_kmh": 0.4, "weather_code": 1, "past_24h_rainfall_mm": 13.1, "past_48h_rainfall_mm": 28.6, "past_72h_rainfall_mm": 28.7, "forecast_next_24h_mm": 8.7, "antecedent_rainfall_index": 20.88, "rainfall_hazard_level": "MODERATE", "dynamic_risk_multiplier": 1.3 }, "geometry": { "type": "Point", "coordinates": [ 96.1667, 27.9167 ] } },
{ "type": "Feature", "properties": { "station_id": "NER_AR_07", "name": "Aalo (Along)", "state": "Arunachal Pradesh", "corridor": "West Siang / Trans-Arunachal", "elevation_m": 619, "latitude": 28.1694, "longitude": 94.8028, "timestamp": "2026-09-05T19:24:27.003768+00:00", "temperature_c": 24.6, "relative_humidity_pct": 98, "current_precip_rate_mm_hr": 0.0, "wind_speed_kmh": 0.6, "weather_code": 2, "past_24h_rainfall_mm": 5.4, "past_48h_rainfall_mm": 13.8, "past_72h_rainfall_mm": 15.4, "forecast_next_24h_mm": 14.2, "antecedent_rainfall_index": 10.0, "rainfall_hazard_level": "NORMAL", "dynamic_risk_multiplier": 1.0 }, "geometry": { "type": "Point", "coordinates": [ 94.8028, 28.1694 ] } },
{ "type": "Feature", "properties": { "station_id": "NER_ML_01", "name": "Shillong", "state": "Meghalaya", "corridor": "Khasi Hills / NH-6", "elevation_m": 1525, "latitude": 25.5788, "longitude": 91.8933, "timestamp": "2026-09-05T19:24:27.003768+00:00", "temperature_c": 19.0, "relative_humidity_pct": 95, "current_precip_rate_mm_hr": 0.0, "wind_speed_kmh": 4.0, "weather_code": 3, "past_24h_rainfall_mm": 1.7, "past_48h_rainfall_mm": 16.9, "past_72h_rainfall_mm": 20.5, "forecast_next_24h_mm": 1.9, "antecedent_rainfall_index": 10.2, "rainfall_hazard_level": "NORMAL", "dynamic_risk_multiplier": 1.0 }, "geometry": { "type": "Point", "coordinates": [ 91.8933, 25.5788 ] } },
{ "type": "Feature", "properties": { "station_id": "NER_ML_02", "name": "Cherrapunji (Sohra)", "state": "Meghalaya", "corridor": "Heavy Rain Zone / SH-5", "elevation_m": 1484, "latitude": 25.27, "longitude": 91.73, "timestamp": "2026-09-05T19:24:27.003768+00:00", "temperature_c": 19.1, "relative_humidity_pct": 98, "current_precip_rate_mm_hr": 0.0, "wind_speed_kmh": 1.3, "weather_code": 3, "past_24h_rainfall_mm": 14.1, "past_48h_rainfall_mm": 26.5, "past_72h_rainfall_mm": 50.7, "forecast_next_24h_mm": 3.0, "antecedent_rainfall_index": 26.35, "rainfall_hazard_level": "MODERATE", "dynamic_risk_multiplier": 1.3 }, "geometry": { "type": "Point", "coordinates": [ 91.73, 25.27 ] } },
{ "type": "Feature", "properties": { "station_id": "NER_ML_03", "name": "Jowai", "state": "Meghalaya", "corridor": "Jaintia Hills / NH-6", "elevation_m": 1380, "latitude": 25.4464, "longitude": 92.1994, "timestamp": "2026-09-05T19:24:27.003768+00:00", "temperature_c": 19.0, "relative_humidity_pct": 100, "current_precip_rate_mm_hr": 0.1, "wind_speed_kmh": 5.2, "weather_code": 51, "past_24h_rainfall_mm": 2.2, "past_48h_rainfall_mm": 10.3, "past_72h_rainfall_mm": 13.6, "forecast_next_24h_mm": 1.7, "antecedent_rainfall_index": 7.08, "rainfall_hazard_level": "NORMAL", "dynamic_risk_multiplier": 1.0 }, "geometry": { "type": "Point", "coordinates": [ 92.1994, 25.4464 ] } },
{ "type": "Feature", "properties": { "station_id": "NER_ML_04", "name": "Tura", "state": "Meghalaya", "corridor": "Garo Hills / NH-217", "elevation_m": 349, "latitude": 25.5144, "longitude": 90.2032, "timestamp": "2026-09-05T19:24:27.003768+00:00", "temperature_c": 25.0, "relative_humidity_pct": 89, "current_precip_rate_mm_hr": 0.0, "wind_speed_kmh": 8.8, "weather_code": 3, "past_24h_rainfall_mm": 4.0, "past_48h_rainfall_mm": 11.0, "past_72h_rainfall_mm": 15.9, "forecast_next_24h_mm": 0.3, "antecedent_rainfall_index": 8.72, "rainfall_hazard_level": "NORMAL", "dynamic_risk_multiplier": 1.0 }, "geometry": { "type": "Point", "coordinates": [ 90.2032, 25.5144 ] } },
{ "type": "Feature", "properties": { "station_id": "NER_ML_05", "name": "Nongstoin", "state": "Meghalaya", "corridor": "West Khasi / NH-106", "elevation_m": 1409, "latitude": 25.5167, "longitude": 91.2667, "timestamp": "2026-09-05T19:24:27.003768+00:00", "temperature_c": 19.6, "relative_humidity_pct": 99, "current_precip_rate_mm_hr": 0.2, "wind_speed_kmh": 4.6, "weather_code": 53, "past_24h_rainfall_mm": 2.6, "past_48h_rainfall_mm": 14.5, "past_72h_rainfall_mm": 26.1, "forecast_next_24h_mm": 3.1, "antecedent_rainfall_index": 11.45, "rainfall_hazard_level": "NORMAL", "dynamic_risk_multiplier": 1.0 }, "geometry": { "type": "Point", "coordinates": [ 91.2667, 25.5167 ] } },
{ "type": "Feature", "properties": { "station_id": "NER_MN_01", "name": "Imphal", "state": "Manipur", "corridor": "Imphal Valley / NH-2", "elevation_m": 786, "latitude": 24.817, "longitude": 93.9368, "timestamp": "2026-09-05T19:24:27.003768+00:00", "temperature_c": 22.5, "relative_humidity_pct": 95, "current_precip_rate_mm_hr": 0.5, "wind_speed_kmh": 0.4, "weather_code": 80, "past_24h_rainfall_mm": 6.3, "past_48h_rainfall_mm": 9.2, "past_72h_rainfall_mm": 20.3, "forecast_next_24h_mm": 15.7, "antecedent_rainfall_index": 10.53, "rainfall_hazard_level": "NORMAL", "dynamic_risk_multiplier": 1.0 }, "geometry": { "type": "Point", "coordinates": [ 93.9368, 24.817 ] } },
{ "type": "Feature", "properties": { "station_id": "NER_MN_02", "name": "Senapati", "state": "Manipur", "corridor": "Kohima-Imphal Lifeline / NH-2", "elevation_m": 1050, "latitude": 25.2681, "longitude": 94.0203, "timestamp": "2026-09-05T19:24:27.003768+00:00", "temperature_c": 20.3, "relative_humidity_pct": 93, "current_precip_rate_mm_hr": 0.3, "wind_speed_kmh": 0.7, "weather_code": 55, "past_24h_rainfall_mm": 8.1, "past_48h_rainfall_mm": 11.0, "past_72h_rainfall_mm": 14.7, "forecast_next_24h_mm": 28.8, "antecedent_rainfall_index": 10.47, "rainfall_hazard_level": "NORMAL", "dynamic_risk_multiplier": 1.0 }, "geometry": { "type": "Point", "coordinates": [ 94.0203, 25.2681 ] } },
{ "type": "Feature", "properties": { "station_id": "NER_MN_03", "name": "Tamenglong", "state": "Manipur", "corridor": "High Landslide Zone / NH-37", "elevation_m": 1260, "latitude": 24.9856, "longitude": 93.4939, "timestamp": "2026-09-05T19:24:27.003768+00:00", "temperature_c": 20.2, "relative_humidity_pct": 99, "current_precip_rate_mm_hr": 0.2, "wind_speed_kmh": 1.8, "weather_code": 53, "past_24h_rainfall_mm": 11.5, "past_48h_rainfall_mm": 20.1, "past_72h_rainfall_mm": 38.6, "forecast_next_24h_mm": 13.4, "antecedent_rainfall_index": 20.43, "rainfall_hazard_level": "MODERATE", "dynamic_risk_multiplier": 1.3 }, "geometry": { "type": "Point", "coordinates": [ 93.4939, 24.9856 ] } },
{ "type": "Feature", "properties": { "station_id": "NER_MN_04", "name": "Churachandpur", "state": "Manipur", "corridor": "South Manipur / NH-102B", "elevation_m": 922, "latitude": 24.3333, "longitude": 93.6833, "timestamp": "2026-09-05T19:24:27.003768+00:00", "temperature_c": 21.8, "relative_humidity_pct": 98, "current_precip_rate_mm_hr": 0.4, "wind_speed_kmh": 3.9, "weather_code": 80, "past_24h_rainfall_mm": 5.4, "past_48h_rainfall_mm": 9.2, "past_72h_rainfall_mm": 32.7, "forecast_next_24h_mm": 9.9, "antecedent_rainfall_index": 13.18, "rainfall_hazard_level": "NORMAL", "dynamic_risk_multiplier": 1.0 }, "geometry": { "type": "Point", "coordinates": [ 93.6833, 24.3333 ] } },
{ "type": "Feature", "properties": { "station_id": "NER_MN_05", "name": "Ukhrul", "state": "Manipur", "corridor": "East Manipur / NH-202", "elevation_m": 1662, "latitude": 25.1167, "longitude": 94.3667, "timestamp": "2026-09-05T19:24:27.003768+00:00", "temperature_c": 16.7, "relative_humidity_pct": 100, "current_precip_rate_mm_hr": 0.1, "wind_speed_kmh": 2.2, "weather_code": 51, "past_24h_rainfall_mm": 2.6, "past_48h_rainfall_mm": 4.5, "past_72h_rainfall_mm": 8.4, "forecast_next_24h_mm": 10.8, "antecedent_rainfall_index": 4.52, "rainfall_hazard_level": "NORMAL", "dynamic_risk_multiplier": 1.0 }, "geometry": { "type": "Point", "coordinates": [ 94.3667, 25.1167 ] } },
{ "type": "Feature", "properties": { "station_id": "NER_MN_06", "name": "Jiribam", "state": "Manipur", "corridor": "Assam-Manipur Border / NH-37", "elevation_m": 30, "latitude": 24.8, "longitude": 93.12, "timestamp": "2026-09-05T19:24:27.003768+00:00", "temperature_c": 24.9, "relative_humidity_pct": 98, "current_precip_rate_mm_hr": 0.5, "wind_speed_kmh": 4.4, "weather_code": 80, "past_24h_rainfall_mm": 21.4, "past_48h_rainfall_mm": 46.0, "past_72h_rainfall_mm": 82.7, "forecast_next_24h_mm": 17.4, "antecedent_rainfall_index": 42.88, "rainfall_hazard_level": "HIGH", "dynamic_risk_multiplier": 1.8 }, "geometry": { "type": "Point", "coordinates": [ 93.12, 24.8 ] } },
{ "type": "Feature", "properties": { "station_id": "NER_MZ_01", "name": "Aizawl", "state": "Mizoram", "corridor": "Capital / NH-306", "elevation_m": 1132, "latitude": 23.7307, "longitude": 92.7173, "timestamp": "2026-09-05T19:24:27.003768+00:00", "temperature_c": 19.7, "relative_humidity_pct": 98, "current_precip_rate_mm_hr": 0.0, "wind_speed_kmh": 2.7, "weather_code": 3, "past_24h_rainfall_mm": 6.5, "past_48h_rainfall_mm": 12.2, "past_72h_rainfall_mm": 33.3, "forecast_next_24h_mm": 2.2, "antecedent_rainfall_index": 14.62, "rainfall_hazard_level": "NORMAL", "dynamic_risk_multiplier": 1.0 }, "geometry": { "type": "Point", "coordinates": [ 92.7173, 23.7307 ] } },
{ "type": "Feature", "properties": { "station_id": "NER_MZ_02", "name": "Lunglei", "state": "Mizoram", "corridor": "South Mizoram / NH-54", "elevation_m": 722, "latitude": 22.8833, "longitude": 92.7333, "timestamp": "2026-09-05T19:24:27.003768+00:00", "temperature_c": 21.0, "relative_humidity_pct": 99, "current_precip_rate_mm_hr": 0.0, "wind_speed_kmh": 4.8, "weather_code": 2, "past_24h_rainfall_mm": 7.1, "past_48h_rainfall_mm": 13.8, "past_72h_rainfall_mm": 53.1, "forecast_next_24h_mm": 17.1, "antecedent_rainfall_index": 20.27, "rainfall_hazard_level": "MODERATE", "dynamic_risk_multiplier": 1.3 }, "geometry": { "type": "Point", "coordinates": [ 92.7333, 22.8833 ] } },
{ "type": "Feature", "properties": { "station_id": "NER_MZ_03", "name": "Kolasib", "state": "Mizoram", "corridor": "Silchar-Aizawl Lifeline / NH-306", "elevation_m": 612, "latitude": 24.23, "longitude": 92.68, "timestamp": "2026-09-05T19:24:27.003768+00:00", "temperature_c": 23.0, "relative_humidity_pct": 98, "current_precip_rate_mm_hr": 0.0, "wind_speed_kmh": 1.5, "weather_code": 3, "past_24h_rainfall_mm": 5.8, "past_48h_rainfall_mm": 15.3, "past_72h_rainfall_mm": 25.3, "forecast_next_24h_mm": 4.9, "antecedent_rainfall_index": 13.05, "rainfall_hazard_level": "NORMAL", "dynamic_risk_multiplier": 1.0 }, "geometry": { "type": "Point", "coordinates": [ 92.68, 24.23 ] } },
{ "type": "Feature", "properties": { "station_id": "NER_MZ_04", "name": "Champhai", "state": "Mizoram", "corridor": "Border Trade Corridor / NH-102B", "elevation_m": 1334, "latitude": 23.4756, "longitude": 93.3283, "timestamp": "2026-09-05T19:24:27.003768+00:00", "temperature_c": 17.7, "relative_humidity_pct": 100, "current_precip_rate_mm_hr": 0.0, "wind_speed_kmh": 1.4, "weather_code": 3, "past_24h_rainfall_mm": 3.8, "past_48h_rainfall_mm": 18.9, "past_72h_rainfall_mm": 34.8, "forecast_next_24h_mm": 2.5, "antecedent_rainfall_index": 15.32, "rainfall_hazard_level": "MODERATE", "dynamic_risk_multiplier": 1.3 }, "geometry": { "type": "Point", "coordinates": [ 93.3283, 23.4756 ] } },
{ "type": "Feature", "properties": { "station_id": "NER_MZ_05", "name": "Serchhip", "state": "Mizoram", "corridor": "Central Mizoram / NH-54", "elevation_m": 880, "latitude": 23.3411, "longitude": 92.85, "timestamp": "2026-09-05T19:24:27.003768+00:00", "temperature_c": 21.0, "relative_humidity_pct": 99, "current_precip_rate_mm_hr": 0.1, "wind_speed_kmh": 2.9, "weather_code": 51, "past_24h_rainfall_mm": 7.0, "past_48h_rainfall_mm": 21.6, "past_72h_rainfall_mm": 39.9, "forecast_next_24h_mm": 5.4, "antecedent_rainfall_index": 18.88, "rainfall_hazard_level": "MODERATE", "dynamic_risk_multiplier": 1.3 }, "geometry": { "type": "Point", "coordinates": [ 92.85, 23.3411 ] } },
{ "type": "Feature", "properties": { "station_id": "NER_NL_01", "name": "Kohima", "state": "Nagaland", "corridor": "Capital Highway / NH-29", "elevation_m": 1444, "latitude": 25.6701, "longitude": 94.1077, "timestamp": "2026-09-05T19:24:27.003768+00:00", "temperature_c": 18.9, "relative_humidity_pct": 98, "current_precip_rate_mm_hr": 0.3, "wind_speed_kmh": 3.0, "weather_code": 55, "past_24h_rainfall_mm": 36.3, "past_48h_rainfall_mm": 86.7, "past_72h_rainfall_mm": 125.9, "forecast_next_24h_mm": 43.8, "antecedent_rainfall_index": 71.3, "rainfall_hazard_level": "HIGH", "dynamic_risk_multiplier": 1.8 }, "geometry": { "type": "Point", "coordinates": [ 94.1077, 25.6701 ] } },
{ "type": "Feature", "properties": { "station_id": "NER_NL_02", "name": "Dimapur", "state": "Nagaland", "corridor": "Logistics Gateway / NH-29", "elevation_m": 145, "latitude": 25.9068, "longitude": 93.7274, "timestamp": "2026-09-05T19:24:27.003768+00:00", "temperature_c": 26.5, "relative_humidity_pct": 96, "current_precip_rate_mm_hr": 0.0, "wind_speed_kmh": 3.8, "weather_code": 2, "past_24h_rainfall_mm": 22.7, "past_48h_rainfall_mm": 25.3, "past_72h_rainfall_mm": 27.7, "forecast_next_24h_mm": 8.8, "antecedent_rainfall_index": 24.6, "rainfall_hazard_level": "MODERATE", "dynamic_risk_multiplier": 1.3 }, "geometry": { "type": "Point", "coordinates": [ 93.7274, 25.9068 ] } },
{ "type": "Feature", "properties": { "station_id": "NER_NL_03", "name": "Mokokchung", "state": "Nagaland", "corridor": "Central Nagaland / NH-2", "elevation_m": 1325, "latitude": 26.3253, "longitude": 94.515, "timestamp": "2026-09-05T19:24:27.003768+00:00", "temperature_c": 20.4, "relative_humidity_pct": 89, "current_precip_rate_mm_hr": 0.0, "wind_speed_kmh": 1.0, "weather_code": 1, "past_24h_rainfall_mm": 15.6, "past_48h_rainfall_mm": 29.9, "past_72h_rainfall_mm": 50.2, "forecast_next_24h_mm": 14.4, "antecedent_rainfall_index": 27.82, "rainfall_hazard_level": "MODERATE", "dynamic_risk_multiplier": 1.3 }, "geometry": { "type": "Point", "coordinates": [ 94.515, 26.3253 ] } },
{ "type": "Feature", "properties": { "station_id": "NER_NL_04", "name": "Wokha", "state": "Nagaland", "corridor": "Mid Hills / NH-2", "elevation_m": 1313, "latitude": 26.1, "longitude": 94.2667, "timestamp": "2026-09-05T19:24:27.003768+00:00", "temperature_c": 17.9, "relative_humidity_pct": 100, "current_precip_rate_mm_hr": 0.0, "wind_speed_kmh": 2.1, "weather_code": 3, "past_24h_rainfall_mm": 31.8, "past_48h_rainfall_mm": 51.2, "past_72h_rainfall_mm": 64.7, "forecast_next_24h_mm": 7.2, "antecedent_rainfall_index": 44.88, "rainfall_hazard_level": "HIGH", "dynamic_risk_multiplier": 1.8 }, "geometry": { "type": "Point", "coordinates": [ 94.2667, 26.1 ] } },
{ "type": "Feature", "properties": { "station_id": "NER_NL_05", "name": "Mon", "state": "Nagaland", "corridor": "North Nagaland / NH-702", "elevation_m": 897, "latitude": 26.75, "longitude": 95.0333, "timestamp": "2026-09-05T19:24:27.003768+00:00", "temperature_c": 23.5, "relative_humidity_pct": 98, "current_precip_rate_mm_hr": 0.0, "wind_speed_kmh": 0.9, "weather_code": 1, "past_24h_rainfall_mm": 23.7, "past_48h_rainfall_mm": 55.7, "past_72h_rainfall_mm": 58.1, "forecast_next_24h_mm": 11.2, "antecedent_rainfall_index": 40.3, "rainfall_hazard_level": "HIGH", "dynamic_risk_multiplier": 1.8 }, "geometry": { "type": "Point", "coordinates": [ 95.0333, 26.75 ] } },
{ "type": "Feature", "properties": { "station_id": "NER_NL_06", "name": "Phek", "state": "Nagaland", "corridor": "East Hills / NH-202", "elevation_m": 1450, "latitude": 25.6833, "longitude": 94.5, "timestamp": "2026-09-05T19:24:27.003768+00:00", "temperature_c": 20.2, "relative_humidity_pct": 98, "current_precip_rate_mm_hr": 0.0, "wind_speed_kmh": 1.3, "weather_code": 3, "past_24h_rainfall_mm": 3.4, "past_48h_rainfall_mm": 13.9, "past_72h_rainfall_mm": 20.8, "forecast_next_24h_mm": 11.7, "antecedent_rainfall_index": 10.38, "rainfall_hazard_level": "NORMAL", "dynamic_risk_multiplier": 1.0 }, "geometry": { "type": "Point", "coordinates": [ 94.5, 25.6833 ] } },
{ "type": "Feature", "properties": { "station_id": "NER_SK_01", "name": "Gangtok", "state": "Sikkim", "corridor": "Capital / NH-10", "elevation_m": 1650, "latitude": 27.3389, "longitude": 88.6065, "timestamp": "2026-09-05T19:24:27.003768+00:00", "temperature_c": 18.9, "relative_humidity_pct": 94, "current_precip_rate_mm_hr": 0.1, "wind_speed_kmh": 1.7, "weather_code": 51, "past_24h_rainfall_mm": 2.7, "past_48h_rainfall_mm": 5.0, "past_72h_rainfall_mm": 15.8, "forecast_next_24h_mm": 16.7, "antecedent_rainfall_index": 6.55, "rainfall_hazard_level": "NORMAL", "dynamic_risk_multiplier": 1.0 }, "geometry": { "type": "Point", "coordinates": [ 88.6065, 27.3389 ] } },
{ "type": "Feature", "properties": { "station_id": "NER_SK_02", "name": "Namchi", "state": "Sikkim", "corridor": "South Sikkim / SH-2", "elevation_m": 1315, "latitude": 27.1667, "longitude": 88.35, "timestamp": "2026-09-05T19:24:27.003768+00:00", "temperature_c": 20.8, "relative_humidity_pct": 94, "current_precip_rate_mm_hr": 0.1, "wind_speed_kmh": 0.9, "weather_code": 51, "past_24h_rainfall_mm": 31.5, "past_48h_rainfall_mm": 47.5, "past_72h_rainfall_mm": 53.2, "forecast_next_24h_mm": 33.7, "antecedent_rainfall_index": 40.92, "rainfall_hazard_level": "HIGH", "dynamic_risk_multiplier": 1.8 }, "geometry": { "type": "Point", "coordinates": [ 88.35, 27.1667 ] } },
{ "type": "Feature", "properties": { "station_id": "NER_SK_03", "name": "Mangan", "state": "Sikkim", "corridor": "North Sikkim Highway (High Risk)", "elevation_m": 956, "latitude": 27.5167, "longitude": 88.5333, "timestamp": "2026-09-05T19:24:27.003768+00:00", "temperature_c": 23.9, "relative_humidity_pct": 96, "current_precip_rate_mm_hr": 1.5, "wind_speed_kmh": 1.0, "weather_code": 81, "past_24h_rainfall_mm": 49.1, "past_48h_rainfall_mm": 90.0, "past_72h_rainfall_mm": 149.0, "forecast_next_24h_mm": 54.6, "antecedent_rainfall_index": 84.3, "rainfall_hazard_level": "CRITICAL", "dynamic_risk_multiplier": 2.5 }, "geometry": { "type": "Point", "coordinates": [ 88.5333, 27.5167 ] } },
{ "type": "Feature", "properties": { "station_id": "NER_SK_04", "name": "Gyalshing", "state": "Sikkim", "corridor": "West Sikkim / SH-3", "elevation_m": 1600, "latitude": 27.2833, "longitude": 88.25, "timestamp": "2026-09-05T19:24:27.003768+00:00", "temperature_c": 20.5, "relative_humidity_pct": 97, "current_precip_rate_mm_hr": 0.1, "wind_speed_kmh": 2.7, "weather_code": 51, "past_24h_rainfall_mm": 9.6, "past_48h_rainfall_mm": 12.7, "past_72h_rainfall_mm": 17.0, "forecast_next_24h_mm": 14.5, "antecedent_rainfall_index": 12.22, "rainfall_hazard_level": "NORMAL", "dynamic_risk_multiplier": 1.0 }, "geometry": { "type": "Point", "coordinates": [ 88.25, 27.2833 ] } },
{ "type": "Feature", "properties": { "station_id": "NER_SK_05", "name": "Rangpo", "state": "Sikkim", "corridor": "WB-Sikkim Gateway / NH-10", "elevation_m": 330, "latitude": 27.1772, "longitude": 88.5311, "timestamp": "2026-09-05T19:24:27.003768+00:00", "temperature_c": 26.0, "relative_humidity_pct": 93, "current_precip_rate_mm_hr": 0.1, "wind_speed_kmh": 1.0, "weather_code": 51, "past_24h_rainfall_mm": 8.5, "past_48h_rainfall_mm": 12.7, "past_72h_rainfall_mm": 20.5, "forecast_next_24h_mm": 11.4, "antecedent_rainfall_index": 12.55, "rainfall_hazard_level": "NORMAL", "dynamic_risk_multiplier": 1.0 }, "geometry": { "type": "Point", "coordinates": [ 88.5311, 27.1772 ] } },
{ "type": "Feature", "properties": { "station_id": "NER_TR_01", "name": "Agartala", "state": "Tripura", "corridor": "Capital / NH-8", "elevation_m": 12, "latitude": 23.8315, "longitude": 91.2868, "timestamp": "2026-09-05T19:24:27.003768+00:00", "temperature_c": 26.2, "relative_humidity_pct": 93, "current_precip_rate_mm_hr": 0.0, "wind_speed_kmh": 10.9, "weather_code": 2, "past_24h_rainfall_mm": 4.0, "past_48h_rainfall_mm": 13.1, "past_72h_rainfall_mm": 29.4, "forecast_next_24h_mm": 7.3, "antecedent_rainfall_index": 12.62, "rainfall_hazard_level": "NORMAL", "dynamic_risk_multiplier": 1.0 }, "geometry": { "type": "Point", "coordinates": [ 91.2868, 23.8315 ] } },
{ "type": "Feature", "properties": { "station_id": "NER_TR_02", "name": "Dharmanagar", "state": "Tripura", "corridor": "North Tripura / NH-8", "elevation_m": 21, "latitude": 24.3833, "longitude": 92.1667, "timestamp": "2026-09-05T19:24:27.003768+00:00", "temperature_c": 26.0, "relative_humidity_pct": 92, "current_precip_rate_mm_hr": 0.0, "wind_speed_kmh": 8.3, "weather_code": 2, "past_24h_rainfall_mm": 8.2, "past_48h_rainfall_mm": 12.8, "past_72h_rainfall_mm": 36.1, "forecast_next_24h_mm": 1.2, "antecedent_rainfall_index": 16.32, "rainfall_hazard_level": "MODERATE", "dynamic_risk_multiplier": 1.3 }, "geometry": { "type": "Point", "coordinates": [ 92.1667, 24.3833 ] } },
{ "type": "Feature", "properties": { "station_id": "NER_TR_03", "name": "Udaipur", "state": "Tripura", "corridor": "South Tripura / NH-8", "elevation_m": 19, "latitude": 23.5333, "longitude": 91.4833, "timestamp": "2026-09-05T19:24:27.003768+00:00", "temperature_c": 25.5, "relative_humidity_pct": 94, "current_precip_rate_mm_hr": 0.0, "wind_speed_kmh": 10.0, "weather_code": 2, "past_24h_rainfall_mm": 5.6, "past_48h_rainfall_mm": 21.7, "past_72h_rainfall_mm": 43.0, "forecast_next_24h_mm": 6.0, "antecedent_rainfall_index": 18.97, "rainfall_hazard_level": "MODERATE", "dynamic_risk_multiplier": 1.3 }, "geometry": { "type": "Point", "coordinates": [ 91.4833, 23.5333 ] } },
{ "type": "Feature", "properties": { "station_id": "NER_TR_04", "name": "Ambassa", "state": "Tripura", "corridor": "Dhalai / NH-8", "elevation_m": 60, "latitude": 23.9167, "longitude": 91.85, "timestamp": "2026-09-05T19:24:27.003768+00:00", "temperature_c": 25.1, "relative_humidity_pct": 96, "current_precip_rate_mm_hr": 0.0, "wind_speed_kmh": 10.8, "weather_code": 2, "past_24h_rainfall_mm": 4.6, "past_48h_rainfall_mm": 10.3, "past_72h_rainfall_mm": 40.3, "forecast_next_24h_mm": 2.4, "antecedent_rainfall_index": 14.95, "rainfall_hazard_level": "NORMAL", "dynamic_risk_multiplier": 1.0 }, "geometry": { "type": "Point", "coordinates": [ 91.85, 23.9167 ] } }
]
}
