{
"type": "FeatureCollection",
"name": "ner_road_incidents",
"crs": { "type": "name", "properties": { "name": "urn:ogc:def:crs:OGC:1.3:CRS84" } },
"features": [
{ "type": "Feature", "properties": { "incident_id": "INC_NER_2026_001", "title": "Major Landslide Blockage on NH-29", "incident_type": "LANDSLIDE_BLOCKAGE", "severity": "CRITICAL", "status": "ACTIVE", "state": "Nagaland", "corridor": "NH-29 (Dimapur - Kohima Highway)", "location_name": "Dzüdza Bridge stretch near Sechü Zubza", "latitude": 25.7142, "longitude": 94.0285, "nearest_osm_ref": "NH29", "passable_for": "NONE", "estimated_clearance_time_hrs": 6.5, "delay_penalty_minutes": 390, "reporting_agency": "Border Roads Organisation (BRO / Project Sewak)", "description": "Massive rockfall and debris flow completely blocked both carriageways. Earthmovers deployed for clearance.", "reported_time": "2026-09-05T17:17:58.264504+00:00" }, "geometry": { "type": "Point", "coordinates": [ 94.0285, 25.7142 ] } },
{ "type": "Feature", "properties": { "incident_id": "INC_NER_2026_002", "title": "Road Subsidance & Sinking Zone on NH-10", "incident_type": "ROAD_COLLAPSE_EROSION", "severity": "HIGH", "status": "ACTIVE", "state": "Sikkim", "corridor": "NH-10 (Siliguri - Gangtok Lifeline)", "location_name": "Selfie Dara near Rangpo Border", "latitude": 27.185, "longitude": 88.525, "nearest_osm_ref": "NH10", "passable_for": "LIGHT_VEHICLES_ONLY", "estimated_clearance_time_hrs": 4.0, "delay_penalty_minutes": 180, "reporting_agency": "Sikkim PWD / Traffic Police", "description": "Road formation washed away along Teesta river bank. Heavy multi-axle trucks strictly diverted via Lava-Algarah route.", "reported_time": "2026-09-05T14:52:58.264504+00:00" }, "geometry": { "type": "Point", "coordinates": [ 88.525, 27.185 ] } },
{ "type": "Feature", "properties": { "incident_id": "INC_NER_2026_003", "title": "Flash Flood Waterlogging on NH-37 (Barak Valley)", "incident_type": "WATERLOGGING_FLOOD", "severity": "HIGH", "status": "ACTIVE", "state": "Assam", "corridor": "NH-37 (Silchar - Jiribam Highway)", "location_name": "Phulertal Low-lying Stretch near Jiribam Border", "latitude": 24.792, "longitude": 93.085, "nearest_osm_ref": "NH37", "passable_for": "HEAVY_AND_4X4_ONLY", "estimated_clearance_time_hrs": 3.0, "delay_penalty_minutes": 120, "reporting_agency": "Assam State Disaster Management Authority (ASDMA)", "description": "2.5 feet water overflow over highway culvert due to Jiri river swelling. Small vehicles cannot pass.", "reported_time": "2026-09-05T18:22:58.264504+00:00" }, "geometry": { "type": "Point", "coordinates": [ 93.085, 24.792 ] } },
{ "type": "Feature", "properties": { "incident_id": "INC_NER_2026_004", "title": "Bridge Deck Structural Maintenance on NH-306", "incident_type": "BRIDGE_MAINTENANCE", "severity": "MODERATE", "status": "CLEARING_IN_PROGRESS", "state": "Mizoram", "corridor": "NH-306 (Kolasib - Sairang Corridor)", "location_name": "Chhimtuipui Bridge approach near Bilkhawthlir", "latitude": 24.312, "longitude": 92.705, "nearest_osm_ref": "NH306", "passable_for": "SINGLE_LANE_ALTERNATING", "estimated_clearance_time_hrs": 2.0, "delay_penalty_minutes": 45, "reporting_agency": "NHIDCL", "description": "Expansion joint maintenance in progress. One-way traffic piloted alternatively with 30-min holding queues.", "reported_time": "2026-09-05T14:32:58.264504+00:00" }, "geometry": { "type": "Point", "coordinates": [ 92.705, 24.312 ] } },
{ "type": "Feature", "properties": { "incident_id": "INC_NER_2026_005", "title": "Debris & Mud Sludge on Sela Pass Road (NH-13)", "incident_type": "MUDSLIDE_SLOWDOWN", "severity": "HIGH", "status": "ACTIVE", "state": "Arunachal Pradesh", "corridor": "NH-13 (Bhalukpong - Tawang Axis)", "location_name": "Between Jaswant Garh and Sela Tunnel approach", "latitude": 27.512, "longitude": 92.095, "nearest_osm_ref": "NH13", "passable_for": "4X4_AND_CHAINS_ONLY", "estimated_clearance_time_hrs": 5.0, "delay_penalty_minutes": 210, "reporting_agency": "Border Roads Organisation (Project Vartak)", "description": "Continuous rainfall triggered slurry mudslide across 150m road length. 4x4 wheel drive required.", "reported_time": "2026-09-05T16:02:58.264504+00:00" }, "geometry": { "type": "Point", "coordinates": [ 92.095, 27.512 ] } },
{ "type": "Feature", "properties": { "incident_id": "INC_NER_2026_006", "title": "Hill Cutting & Slope Failure on Dima Hasao Ghat", "incident_type": "LANDSLIDE_BLOCKAGE", "severity": "CRITICAL", "status": "ACTIVE", "state": "Assam", "corridor": "NH-27 (Lumding - Haflong - Silchar Corridor)", "location_name": "Jatinga Ghat section near Mahur", "latitude": 25.195, "longitude": 93.112, "nearest_osm_ref": "NH27", "passable_for": "NONE", "estimated_clearance_time_hrs": 8.0, "delay_penalty_minutes": 480, "reporting_agency": "NHAI / Dima Hasao District Administration", "description": "Unstable hill mass slipped onto 4-lane expressway under construction. Highway closed for all transit.", "reported_time": "2026-09-05T13:12:58.264504+00:00" }, "geometry": { "type": "Point", "coordinates": [ 93.112, 25.195 ] } },
{ "type": "Feature", "properties": { "incident_id": "INC_NER_2026_007", "title": "Inner Line Permit & Heavy Freight Checkpost Congestion", "incident_type": "BORDER_CHECKPOST_CONGESTION", "severity": "LOW", "status": "ACTIVE", "state": "Mizoram", "corridor": "Vairengte Border Entry Point", "location_name": "Vairengte ILP Checkpost (Assam-Mizoram Border)", "latitude": 24.512, "longitude": 92.756, "nearest_osm_ref": "NH306", "passable_for": "ALL_WITH_CAUTION", "estimated_clearance_time_hrs": 1.5, "delay_penalty_minutes": 35, "reporting_agency": "Mizoram Police & Transport Dept", "description": "Commercial cargo barcode verification queue extending 1.2 km on Assam side.", "reported_time": "2026-09-05T17:47:58.264504+00:00" }, "geometry": { "type": "Point", "coordinates": [ 92.756, 24.512 ] } },
{ "type": "Feature", "properties": { "incident_id": "INC_NER_2026_008", "title": "Bridge Scouring near Mangan (North Sikkim)", "incident_type": "ROAD_COLLAPSE_EROSION", "severity": "CRITICAL", "status": "ACTIVE", "state": "Sikkim", "corridor": "North Sikkim Highway (Dikchu - Mangan)", "location_name": "Sankalang Bridge Replacement Bailey Section", "latitude": 27.53, "longitude": 88.54, "nearest_osm_ref": "North Sikkim Hwy", "passable_for": "NONE", "estimated_clearance_time_hrs": 12.0, "delay_penalty_minutes": 720, "reporting_agency": "Border Roads Organisation (Project Swastik)", "description": "Flash water discharge in Kanaka river damaged bridge abutment. North Sikkim route completely severed.", "reported_time": "2026-09-05T12:22:58.264504+00:00" }, "geometry": { "type": "Point", "coordinates": [ 88.54, 27.53 ] } }
]
}
