{
"type": "FeatureCollection",
"name": "supplier_shipments",
"crs": { "type": "name", "properties": { "name": "urn:ogc:def:crs:OGC:1.3:CRS84" } },
"features": [
{ "type": "Feature", "properties": { "shipment_id": "SHP_NER_101", "origin_hub": "Guwahati Central Logistics Park", "origin_state": "Assam", "origin_lat": 26.1158, "origin_lon": 91.7086, "destination_hub": "Tawang Army & Civil Supply Depot", "destination_state": "Arunachal Pradesh", "destination_lat": 27.5861, "destination_lon": 91.8653, "cargo_type": "Cold-Chain Pharmaceuticals & Emergency Rations", "cargo_weight_tons": 2.0, "priority": "CRITICAL", "assigned_vehicle_type": "LIGHT_4X4_SUPPLY_PICKUP", "scheduled_departure": "2026-09-05T19:32:58.264504+00:00", "ideal_eta_hours": 11.5, "key_risk_corridors": "Bhalukpong-Bomdila-Sela Pass (NH-13)" }, "geometry": { "type": "Point", "coordinates": [ 91.7086, 26.1158 ] } },
{ "type": "Feature", "properties": { "shipment_id": "SHP_NER_102", "origin_hub": "Silchar Transshipment Depot", "origin_state": "Assam", "origin_lat": 24.8333, "origin_lon": 92.7789, "destination_hub": "Aizawl FCI Supply Warehouse", "destination_state": "Mizoram", "destination_lat": 23.7307, "destination_lon": 92.7173, "cargo_type": "Essential Foodgrains & Commodities (FCI)", "cargo_weight_tons": 18.5, "priority": "HIGH", "assigned_vehicle_type": "HEAVY_CARGO_TRUCK", "scheduled_departure": "2026-09-05T20:32:58.264504+00:00", "ideal_eta_hours": 6.0, "key_risk_corridors": "Vairengte-Kolasib-Sairang (NH-306)" }, "geometry": { "type": "Point", "coordinates": [ 92.7789, 24.8333 ] } },
{ "type": "Feature", "properties": { "shipment_id": "SHP_NER_103", "origin_hub": "Dimapur Railway Freight Terminal", "origin_state": "Nagaland", "origin_lat": 25.9068, "origin_lon": 93.7274, "destination_hub": "Imphal Regional Distribution Hub", "destination_state": "Manipur", "destination_lat": 24.817, "destination_lon": 93.9368, "cargo_type": "Infrastructure Construction & Telecom Hardware", "cargo_weight_tons": 8.0, "priority": "MEDIUM", "assigned_vehicle_type": "MEDIUM_COMMERCIAL_VEHICLE", "scheduled_departure": "2026-09-05T21:32:58.264504+00:00", "ideal_eta_hours": 5.5, "key_risk_corridors": "Kohima-Senapati-Imphal (NH-2 / NH-29)" }, "geometry": { "type": "Point", "coordinates": [ 93.7274, 25.9068 ] } },
{ "type": "Feature", "properties": { "shipment_id": "SHP_NER_104", "origin_hub": "Siliguri Integrated Logistics Yard", "origin_state": "West Bengal", "origin_lat": 26.7271, "origin_lon": 88.3953, "destination_hub": "Gangtok State Food & Drug Depot", "destination_state": "Sikkim", "destination_lat": 27.3389, "destination_lon": 88.6065, "cargo_type": "Perishable Dairy & Hospital Oxygen Cylinders", "cargo_weight_tons": 4.5, "priority": "CRITICAL", "assigned_vehicle_type": "MEDIUM_COMMERCIAL_VEHICLE", "scheduled_departure": "2026-09-05T19:32:58.264504+00:00", "ideal_eta_hours": 4.2, "key_risk_corridors": "Sevoke-Coronation Bridge-Rangpo (NH-10)" }, "geometry": { "type": "Point", "coordinates": [ 88.3953, 26.7271 ] } }
]
}
